KUIPER-00061            
1 64521U 25134X   25215.00340213  .00024122  00000+0  69117-3 0  9998
2 64521  51.8724 135.4959 0004904 255.5264 104.5177 15.35771712  7011
KUIPER-00062            
1 64522U 25134Y   25215.25002315 -.00053619  00000+0 -18498-2 0  9994
2 64522  51.8753 134.4465 0006039 241.3132 348.9072 15.29468321  7046
KUIPER-00063            
1 64523U 25134Z   25215.25002315 -.00925839  00000+0 -29604-1 0  9997
2 64523  51.8757 134.0853 0002692 210.1484 183.1543 15.34681504  7052
KUIPER-00064            
1 64524U 25134AA  25215.16132546  .00042480  00000+0  11993-2 0  9991
2 64524  51.8773 134.3110 0001851 181.6268 178.4712 15.35953740  7340
KUIPER-00065            
1 64525U 25134AB  25215.25002315 -.00733490  00000+0 -28562-1 0  9991
2 64525  51.8742 134.7199 0008171 257.8405 160.1596 15.27750978  7289
KUIPER-00066            
1 64526U 25134AC  25215.03737984  .00011158  00000+0  31417-3 0  9998
2 64526  51.8773 134.9833 0001872 283.3460  76.7318 15.36950118  7021
KUIPER-00069            
1 64816U 25151A   25215.16296038  .00024958  00000+0  71468-3 0  9995
2 64816  51.8782 201.3077 0005135 199.7270 160.3518 15.35770524  3924
KUIPER-00070            
1 64817U 25151B   25214.83334491 -.00127944  00000+0 -44587-2 0  9997
2 64817  51.8788 203.1124 0005330 227.7425  11.7760 15.29592278  3867
