<?xml version="1.0" encoding="UTF-8"?>
<ndm xmlns:xsi="http://www.w3.org/2001/XMLSchema-instance" xsi:noNamespaceSchemaLocation="https://sanaregistry.org/r/ndmxml_unqualified/ndmxml-2.0.0-master-2.0.xsd">
<omm id="CCSDS_OMM_VERS" version="2.0">
<header><CREATION_DATE/><ORIGINATOR/></header><body><segment><metadata><OBJECT_NAME>KUIPER-00061</OBJECT_NAME><OBJECT_ID>2025-134X</OBJECT_ID><CENTER_NAME>EARTH</CENTER_NAME><REF_FRAME>TEME</REF_FRAME><TIME_SYSTEM>UTC</TIME_SYSTEM><MEAN_ELEMENT_THEORY>SGP4</MEAN_ELEMENT_THEORY></metadata><data><meanElements><EPOCH>2025-08-03T00:04:53.944032</EPOCH><MEAN_MOTION>15.35771712</MEAN_MOTION><ECCENTRICITY>.0004904</ECCENTRICITY><INCLINATION>51.8724</INCLINATION><RA_OF_ASC_NODE>135.4959</RA_OF_ASC_NODE><ARG_OF_PERICENTER>255.5264</ARG_OF_PERICENTER><MEAN_ANOMALY>104.5177</MEAN_ANOMALY></meanElements><tleParameters><EPHEMERIS_TYPE>0</EPHEMERIS_TYPE><CLASSIFICATION_TYPE>U</CLASSIFICATION_TYPE><NORAD_CAT_ID>64521</NORAD_CAT_ID><ELEMENT_SET_NO>999</ELEMENT_SET_NO><REV_AT_EPOCH>701</REV_AT_EPOCH><BSTAR>.69117E-3</BSTAR><MEAN_MOTION_DOT>.24122E-3</MEAN_MOTION_DOT><MEAN_MOTION_DDOT>0</MEAN_MOTION_DDOT></tleParameters></data></segment></body></omm>
<omm id="CCSDS_OMM_VERS" version="2.0">
<header><CREATION_DATE/><ORIGINATOR/></header><body><segment><metadata><OBJECT_NAME>KUIPER-00062</OBJECT_NAME><OBJECT_ID>2025-134Y</OBJECT_ID><CENTER_NAME>EARTH</CENTER_NAME><REF_FRAME>TEME</REF_FRAME><TIME_SYSTEM>UTC</TIME_SYSTEM><MEAN_ELEMENT_THEORY>SGP4</MEAN_ELEMENT_THEORY></metadata><data><meanElements><EPOCH>2025-08-03T06:00:02.000160</EPOCH><MEAN_MOTION>15.29468321</MEAN_MOTION><ECCENTRICITY>.0006039</ECCENTRICITY><INCLINATION>51.8753</INCLINATION><RA_OF_ASC_NODE>134.4465</RA_OF_ASC_NODE><ARG_OF_PERICENTER>241.3132</ARG_OF_PERICENTER><MEAN_ANOMALY>348.9072</MEAN_ANOMALY></meanElements><tleParameters><EPHEMERIS_TYPE>0</EPHEMERIS_TYPE><CLASSIFICATION_TYPE>U</CLASSIFICATION_TYPE><NORAD_CAT_ID>64522</NORAD_CAT_ID><ELEMENT_SET_NO>999</ELEMENT_SET_NO><REV_AT_EPOCH>704</REV_AT_EPOCH><BSTAR>-.18498E-2</BSTAR><MEAN_MOTION_DOT>-.53619E-3</MEAN_MOTION_DOT><MEAN_MOTION_DDOT>0</MEAN_MOTION_DDOT></tleParameters></data></segment></body></omm>
<omm id="CCSDS_OMM_VERS" version="2.0">
<header><CREATION_DATE/><ORIGINATOR/></header><body><segment><metadata><OBJECT_NAME>KUIPER-00063</OBJECT_NAME><OBJECT_ID>2025-134Z</OBJECT_ID><CENTER_NAME>EARTH</CENTER_NAME><REF_FRAME>TEME</REF_FRAME><TIME_SYSTEM>UTC</TIME_SYSTEM><MEAN_ELEMENT_THEORY>SGP4</MEAN_ELEMENT_THEORY></metadata><data><meanElements><EPOCH>2025-08-03T06:00:02.000160</EPOCH><MEAN_MOTION>15.34681504</MEAN_MOTION><ECCENTRICITY>.0002692</ECCENTRICITY><INCLINATION>51.8757</INCLINATION><RA_OF_ASC_NODE>134.0853</RA_OF_ASC_NODE><ARG_OF_PERICENTER>210.1484</ARG_OF_PERICENTER><MEAN_ANOMALY>183.1543</MEAN_ANOMALY></meanElements><tleParameters><EPHEMERIS_TYPE>0</EPHEMERIS_TYPE><CLASSIFICATION_TYPE>U</CLASSIFICATION_TYPE><NORAD_CAT_ID>64523</NORAD_CAT_ID><ELEMENT_SET_NO>999</ELEMENT_SET_NO><REV_AT_EPOCH>705</REV_AT_EPOCH><BSTAR>-.29604E-1</BSTAR><MEAN_MOTION_DOT>-.925839E-2</MEAN_MOTION_DOT><MEAN_MOTION_DDOT>0</MEAN_MOTION_DDOT></tleParameters></data></segment></body></omm>
<omm id="CCSDS_OMM_VERS" version="2.0">
<header><CREATION_DATE/><ORIGINATOR/></header><body><segment><metadata><OBJECT_NAME>KUIPER-00064</OBJECT_NAME><OBJECT_ID>2025-134AA</OBJECT_ID><CENTER_NAME>EARTH</CENTER_NAME><REF_FRAME>TEME</REF_FRAME><TIME_SYSTEM>UTC</TIME_SYSTEM><MEAN_ELEMENT_THEORY>SGP4</MEAN_ELEMENT_THEORY></metadata><data><meanElements><EPOCH>2025-08-03T03:52:18.519744</EPOCH><MEAN_MOTION>15.35953740</MEAN_MOTION><ECCENTRICITY>.0001851</ECCENTRICITY><INCLINATION>51.8773</INCLINATION><RA_OF_ASC_NODE>134.3110</RA_OF_ASC_NODE><ARG_OF_PERICENTER>181.6268</ARG_OF_PERICENTER><MEAN_ANOMALY>178.4712</MEAN_ANOMALY></meanElements><tleParameters><EPHEMERIS_TYPE>0</EPHEMERIS_TYPE><CLASSIFICATION_TYPE>U</CLASSIFICATION_TYPE><NORAD_CAT_ID>64524</NORAD_CAT_ID><ELEMENT_SET_NO>999</ELEMENT_SET_NO><REV_AT_EPOCH>734</REV_AT_EPOCH><BSTAR>.11993E-2</BSTAR><MEAN_MOTION_DOT>.4248E-3</MEAN_MOTION_DOT><MEAN_MOTION_DDOT>0</MEAN_MOTION_DDOT></tleParameters></data></segment></body></omm>
<omm id="CCSDS_OMM_VERS" version="2.0">
<header><CREATION_DATE/><ORIGINATOR/></header><body><segment><metadata><OBJECT_NAME>KUIPER-00065</OBJECT_NAME><OBJECT_ID>2025-134AB</OBJECT_ID><CENTER_NAME>EARTH</CENTER_NAME><REF_FRAME>TEME</REF_FRAME><TIME_SYSTEM>UTC</TIME_SYSTEM><MEAN_ELEMENT_THEORY>SGP4</MEAN_ELEMENT_THEORY></metadata><data><meanElements><EPOCH>2025-08-03T06:00:02.000160</EPOCH><MEAN_MOTION>15.27750978</MEAN_MOTION><ECCENTRICITY>.0008171</ECCENTRICITY><INCLINATION>51.8742</INCLINATION><RA_OF_ASC_NODE>134.7199</RA_OF_ASC_NODE><ARG_OF_PERICENTER>257.8405</ARG_OF_PERICENTER><MEAN_ANOMALY>160.1596</MEAN_ANOMALY></meanElements><tleParameters><EPHEMERIS_TYPE>0</EPHEMERIS_TYPE><CLASSIFICATION_TYPE>U</CLASSIFICATION_TYPE><NORAD_CAT_ID>64525</NORAD_CAT_ID><ELEMENT_SET_NO>999</ELEMENT_SET_NO><REV_AT_EPOCH>728</REV_AT_EPOCH><BSTAR>-.28562E-1</BSTAR><MEAN_MOTION_DOT>-.73349E-2</MEAN_MOTION_DOT><MEAN_MOTION_DDOT>0</MEAN_MOTION_DDOT></tleParameters></data></segment></body></omm>
<omm id="CCSDS_OMM_VERS" version="2.0">
<header><CREATION_DATE/><ORIGINATOR/></header><body><segment><metadata><OBJECT_NAME>KUIPER-00066</OBJECT_NAME><OBJECT_ID>2025-134AC</OBJECT_ID><CENTER_NAME>EARTH</CENTER_NAME><REF_FRAME>TEME</REF_FRAME><TIME_SYSTEM>UTC</TIME_SYSTEM><MEAN_ELEMENT_THEORY>SGP4</MEAN_ELEMENT_THEORY></metadata><data><meanElements><EPOCH>2025-08-03T00:53:49.618176</EPOCH><MEAN_MOTION>15.36950118</MEAN_MOTION><ECCENTRICITY>.0001872</ECCENTRICITY><INCLINATION>51.8773</INCLINATION><RA_OF_ASC_NODE>134.9833</RA_OF_ASC_NODE><ARG_OF_PERICENTER>283.3460</ARG_OF_PERICENTER><MEAN_ANOMALY>76.7318</MEAN_ANOMALY></meanElements><tleParameters><EPHEMERIS_TYPE>0</EPHEMERIS_TYPE><CLASSIFICATION_TYPE>U</CLASSIFICATION_TYPE><NORAD_CAT_ID>64526</NORAD_CAT_ID><ELEMENT_SET_NO>999</ELEMENT_SET_NO><REV_AT_EPOCH>702</REV_AT_EPOCH><BSTAR>.31417E-3</BSTAR><MEAN_MOTION_DOT>.11158E-3</MEAN_MOTION_DOT><MEAN_MOTION_DDOT>0</MEAN_MOTION_DDOT></tleParameters></data></segment></body></omm>
<omm id="CCSDS_OMM_VERS" version="2.0">
<header><CREATION_DATE/><ORIGINATOR/></header><body><segment><metadata><OBJECT_NAME>KUIPER-00069</OBJECT_NAME><OBJECT_ID>2025-151A</OBJECT_ID><CENTER_NAME>EARTH</CENTER_NAME><REF_FRAME>TEME</REF_FRAME><TIME_SYSTEM>UTC</TIME_SYSTEM><MEAN_ELEMENT_THEORY>SGP4</MEAN_ELEMENT_THEORY></metadata><data><meanElements><EPOCH>2025-08-03T03:54:39.776832</EPOCH><MEAN_MOTION>15.35770524</MEAN_MOTION><ECCENTRICITY>.0005135</ECCENTRICITY><INCLINATION>51.8782</INCLINATION><RA_OF_ASC_NODE>201.3077</RA_OF_ASC_NODE><ARG_OF_PERICENTER>199.7270</ARG_OF_PERICENTER><MEAN_ANOMALY>160.3518</MEAN_ANOMALY></meanElements><tleParameters><EPHEMERIS_TYPE>0</EPHEMERIS_TYPE><CLASSIFICATION_TYPE>U</CLASSIFICATION_TYPE><NORAD_CAT_ID>64816</NORAD_CAT_ID><ELEMENT_SET_NO>999</ELEMENT_SET_NO><REV_AT_EPOCH>392</REV_AT_EPOCH><BSTAR>.71468E-3</BSTAR><MEAN_MOTION_DOT>.24958E-3</MEAN_MOTION_DOT><MEAN_MOTION_DDOT>0</MEAN_MOTION_DDOT></tleParameters></data></segment></body></omm>
<omm id="CCSDS_OMM_VERS" version="2.0">
<header><CREATION_DATE/><ORIGINATOR/></header><body><segment><metadata><OBJECT_NAME>KUIPER-00070</OBJECT_NAME><OBJECT_ID>2025-151B</OBJECT_ID><CENTER_NAME>EARTH</CENTER_NAME><REF_FRAME>TEME</REF_FRAME><TIME_SYSTEM>UTC</TIME_SYSTEM><MEAN_ELEMENT_THEORY>SGP4</MEAN_ELEMENT_THEORY></metadata><data><meanElements><EPOCH>2025-08-02T20:00:01.000224</EPOCH><MEAN_MOTION>15.29592278</MEAN_MOTION><ECCENTRICITY>.000533</ECCENTRICITY><INCLINATION>51.8788</INCLINATION><RA_OF_ASC_NODE>203.1124</RA_OF_ASC_NODE><ARG_OF_PERICENTER>227.7425</ARG_OF_PERICENTER><MEAN_ANOMALY>11.7760</MEAN_ANOMALY></meanElements><tleParameters><EPHEMERIS_TYPE>0</EPHEMERIS_TYPE><CLASSIFICATION_TYPE>U</CLASSIFICATION_TYPE><NORAD_CAT_ID>64817</NORAD_CAT_ID><ELEMENT_SET_NO>999</ELEMENT_SET_NO><REV_AT_EPOCH>386</REV_AT_EPOCH><BSTAR>-.44587E-2</BSTAR><MEAN_MOTION_DOT>-.127944E-2</MEAN_MOTION_DOT><MEAN_MOTION_DDOT>0</MEAN_MOTION_DDOT></tleParameters></data></segment></body></omm>

</ndm>
